0 HIMAWARI 4 (GMS 4)
1 20217U 89070A   13283.06174650 -.00000170  00000-0  10000-3 0  2460
2 20217 014.6373 028.1549 0048219 029.8387 330.4349 00.97412952 87413
0 HIMAWARI 4 (GMS 4)
1 20217U 89070A   13288.19433222 -.00000116  00000-0  10000-3 0  2473
2 20217 014.6439 028.0986 0048279 030.1273 330.1338 00.97411595 87467
0 HIMAWARI 4 (GMS 4)
1 20217U 89070A   13291.27390776 -.00000075  00000-0  10000-3 0  2487
2 20217 014.6479 028.0650 0048350 030.2590 329.9888 00.97410867 87492
0 HIMAWARI 4 (GMS 4)
1 20217U 89070A   13293.32698567 -.00000072  00000-0  10000-3 0  2492
2 20217 014.6505 028.0426 0048377 030.3804 329.8666 00.97410925 87512
0 HIMAWARI 4 (GMS 4)
1 20217U 89070A   13295.38008392 -.00000091  00000-0  10000-3 0  2504
2 20217 014.6530 028.0202 0048396 030.4996 329.7553 00.97411440 87535
